[{"OBJECT_NAME":"ISS (ZARYA)","OBJECT_ID":"1998-067A","EPOCH":"2026-03-17T04:38:23.008704","MEAN_MOTION":15.48337753,"ECCENTRICITY":0.00062264,"INCLINATION":51.6337,"RA_OF_ASC_NODE":35.2624,"ARG_OF_PERICENTER":201.0018,"MEAN_ANOMALY":159.0715,"EPHEMERIS_TYPE":0,"CLASSIFICATION_TYPE":"U","NORAD_CAT_ID":25544,"ELEMENT_SET_NO":999,"REV_AT_EPOCH":55749,"BSTAR":0.00023613801,"MEAN_MOTION_DOT":0.0001229,"MEAN_MOTION_DDOT":0},{"OBJECT_NAME":"POISK","OBJECT_ID":"2009-060A","EPOCH":"2026-03-17T04:38:23.008704","MEAN_MOTION":15.48337753,"ECCENTRICITY":0.00062264,"INCLINATION":51.6337,"RA_OF_ASC_NODE":35.2624,"ARG_OF_PERICENTER":201.0018,"MEAN_ANOMALY":159.0715,"EPHEMERIS_TYPE":0,"CLASSIFICATION_TYPE":"U","NORAD_CAT_ID":36086,"ELEMENT_SET_NO":999,"REV_AT_EPOCH":55444,"BSTAR":0.00023613801,"MEAN_MOTION_DOT":0.0001229,"MEAN_MOTION_DDOT":0},{"OBJECT_NAME":"CSS (TIANHE)","OBJECT_ID":"2021-035A","EPOCH":"2026-03-17T06:22:25.768128","MEAN_MOTION":15.61083168,"ECCENTRICITY":0.00061505,"INCLINATION":41.4671,"RA_OF_ASC_NODE":162.0513,"ARG_OF_PERICENTER":318.9181,"MEAN_ANOMALY":41.1194,"EPHEMERIS_TYPE":0,"CLASSIFICATION_TYPE":"U","NORAD_CAT_ID":48274,"ELEMENT_SET_NO":999,"REV_AT_EPOCH":27879,"BSTAR":0.00024645816,"MEAN_MOTION_DOT":0.00021102,"MEAN_MOTION_DDOT":0},{"OBJECT_NAME":"ISS (NAUKA)","OBJECT_ID":"2021-066A","EPOCH":"2026-03-17T04:38:23.008704","MEAN_MOTION":15.48337753,"ECCENTRICITY":0.00062264,"INCLINATION":51.6337,"RA_OF_ASC_NODE":35.2624,"ARG_OF_PERICENTER":201.0018,"MEAN_ANOMALY":159.0715,"EPHEMERIS_TYPE":0,"CLASSIFICATION_TYPE":"U","NORAD_CAT_ID":49044,"ELEMENT_SET_NO":999,"REV_AT_EPOCH":55445,"BSTAR":0.00023613801,"MEAN_MOTION_DOT":0.0001229,"MEAN_MOTION_DDOT":0},{"OBJECT_NAME":"FREGAT DEB","OBJECT_ID":"2011-037PF","EPOCH":"2026-03-17T06:12:36.145152","MEAN_MOTION":12.40456934,"ECCENTRICITY":0.09635839,"INCLINATION":51.6534,"RA_OF_ASC_NODE":278.0398,"ARG_OF_PERICENTER":76.7704,"MEAN_ANOMALY":293.8703,"EPHEMERIS_TYPE":0,"CLASSIFICATION_TYPE":"U","NORAD_CAT_ID":49271,"ELEMENT_SET_NO":999,"REV_AT_EPOCH":21363,"BSTAR":0.01647761,"MEAN_MOTION_DOT":0.00011612,"MEAN_MOTION_DDOT":0},{"OBJECT_NAME":"CSS (WENTIAN)","OBJECT_ID":"2022-085A","EPOCH":"2026-03-17T06:22:25.768128","MEAN_MOTION":15.61083168,"ECCENTRICITY":0.00061505,"INCLINATION":41.4671,"RA_OF_ASC_NODE":162.0513,"ARG_OF_PERICENTER":318.9181,"MEAN_ANOMALY":41.1194,"EPHEMERIS_TYPE":0,"CLASSIFICATION_TYPE":"U","NORAD_CAT_ID":53239,"ELEMENT_SET_NO":999,"REV_AT_EPOCH":27561,"BSTAR":0.00024645816,"MEAN_MOTION_DOT":0.00021102,"MEAN_MOTION_DDOT":0},{"OBJECT_NAME":"CSS (MENGTIAN)","OBJECT_ID":"2022-143A","EPOCH":"2026-03-17T06:22:25.768128","MEAN_MOTION":15.61083168,"ECCENTRICITY":0.00061505,"INCLINATION":41.4671,"RA_OF_ASC_NODE":162.0513,"ARG_OF_PERICENTER":318.9181,"MEAN_ANOMALY":41.1194,"EPHEMERIS_TYPE":0,"CLASSIFICATION_TYPE":"U","NORAD_CAT_ID":54216,"ELEMENT_SET_NO":999,"REV_AT_EPOCH":27558,"BSTAR":0.00024645816,"MEAN_MOTION_DOT":0.00021102,"MEAN_MOTION_DDOT":0},{"OBJECT_NAME":"PROGRESS-MS 31","OBJECT_ID":"2025-146A","EPOCH":"2026-03-16T03:51:18.372384","MEAN_MOTION":15.48306205,"ECCENTRICITY":0.00063428,"INCLINATION":51.6332,"RA_OF_ASC_NODE":40.3661,"ARG_OF_PERICENTER":195.9803,"MEAN_ANOMALY":164.0986,"EPHEMERIS_TYPE":0,"CLASSIFICATION_TYPE":"U","NORAD_CAT_ID":64751,"ELEMENT_SET_NO":999,"REV_AT_EPOCH":55446,"BSTAR":0.00016433499,"MEAN_MOTION_DOT":8.402e-5,"MEAN_MOTION_DDOT":0},{"OBJECT_NAME":"TIANZHOU-9","OBJECT_ID":"2025-149A","EPOCH":"2026-03-17T06:22:25.768128","MEAN_MOTION":15.61083168,"ECCENTRICITY":0.00061505,"INCLINATION":41.4671,"RA_OF_ASC_NODE":162.0513,"ARG_OF_PERICENTER":318.9181,"MEAN_ANOMALY":41.1194,"EPHEMERIS_TYPE":0,"CLASSIFICATION_TYPE":"U","NORAD_CAT_ID":64786,"ELEMENT_SET_NO":999,"REV_AT_EPOCH":27559,"BSTAR":0.00024645816,"MEAN_MOTION_DOT":0.00021102,"MEAN_MOTION_DDOT":0},{"OBJECT_NAME":"PROGRESS-MS 32","OBJECT_ID":"2025-204A","EPOCH":"2026-03-17T04:38:23.008704","MEAN_MOTION":15.48337753,"ECCENTRICITY":0.00062264,"INCLINATION":51.6337,"RA_OF_ASC_NODE":35.2624,"ARG_OF_PERICENTER":201.0018,"MEAN_ANOMALY":159.0715,"EPHEMERIS_TYPE":0,"CLASSIFICATION_TYPE":"U","NORAD_CAT_ID":65586,"ELEMENT_SET_NO":999,"REV_AT_EPOCH":55450,"BSTAR":0.00023613801,"MEAN_MOTION_DOT":0.0001229,"MEAN_MOTION_DDOT":0},{"OBJECT_NAME":"YOTSUBA-KULOVER","OBJECT_ID":"1998-067XN","EPOCH":"2026-03-17T02:16:26.758560","MEAN_MOTION":15.84172953,"ECCENTRICITY":0.00049207,"INCLINATION":51.6214,"RA_OF_ASC_NODE":18.7815,"ARG_OF_PERICENTER":122.2013,"MEAN_ANOMALY":237.9468,"EPHEMERIS_TYPE":0,"CLASSIFICATION_TYPE":"U","NORAD_CAT_ID":65941,"ELEMENT_SET_NO":999,"REV_AT_EPOCH":2467,"BSTAR":0.00096443436,"MEAN_MOTION_DOT":0.00227916,"MEAN_MOTION_DDOT":0},{"OBJECT_NAME":"E-KAGAKU-1","OBJECT_ID":"1998-067XQ","EPOCH":"2026-03-17T02:25:39.507744","MEAN_MOTION":15.83682306,"ECCENTRICITY":0.00054895,"INCLINATION":51.6238,"RA_OF_ASC_NODE":18.8442,"ARG_OF_PERICENTER":126.1658,"MEAN_ANOMALY":233.9853,"EPHEMERIS_TYPE":0,"CLASSIFICATION_TYPE":"U","NORAD_CAT_ID":65943,"ELEMENT_SET_NO":999,"REV_AT_EPOCH":2467,"BSTAR":0.000907094,"MEAN_MOTION_DOT":0.00208954,"MEAN_MOTION_DDOT":0},{"OBJECT_NAME":"HRC MONOBLOCK CAMERA","OBJECT_ID":"1998-067XR","EPOCH":"2026-03-17T02:50:58.951104","MEAN_MOTION":15.63041663,"ECCENTRICITY":0.00038342,"INCLINATION":51.629,"RA_OF_ASC_NODE":28.0146,"ARG_OF_PERICENTER":127.1537,"MEAN_ANOMALY":232.9808,"EPHEMERIS_TYPE":0,"CLASSIFICATION_TYPE":"U","NORAD_CAT_ID":66052,"ELEMENT_SET_NO":999,"REV_AT_EPOCH":2355,"BSTAR":0.00043153999,"MEAN_MOTION_DOT":0.00039682,"MEAN_MOTION_DDOT":0},{"OBJECT_NAME":"HTV-X1","OBJECT_ID":"2025-241A","EPOCH":"2026-03-14T08:15:41.712192","MEAN_MOTION":15.2291016,"ECCENTRICITY":0.00057412,"INCLINATION":51.6358,"RA_OF_ASC_NODE":50.71,"ARG_OF_PERICENTER":187.4047,"MEAN_ANOMALY":172.6847,"EPHEMERIS_TYPE":0,"CLASSIFICATION_TYPE":"U","NORAD_CAT_ID":66174,"ELEMENT_SET_NO":999,"REV_AT_EPOCH":2166,"BSTAR":0.00057086916,"MEAN_MOTION_DOT":0.00013268,"MEAN_MOTION_DDOT":0},{"OBJECT_NAME":"SZ-21 MODULE","OBJECT_ID":"2025-246C","EPOCH":"2026-03-16T15:07:24.413088","MEAN_MOTION":15.6911664,"ECCENTRICITY":7.252e-5,"INCLINATION":41.4745,"RA_OF_ASC_NODE":160.6185,"ARG_OF_PERICENTER":306.4076,"MEAN_ANOMALY":53.6699,"EPHEMERIS_TYPE":0,"CLASSIFICATION_TYPE":"U","NORAD_CAT_ID":66515,"ELEMENT_SET_NO":999,"REV_AT_EPOCH":1916,"BSTAR":0.00027011342,"MEAN_MOTION_DOT":0.00032043,"MEAN_MOTION_DDOT":0},{"OBJECT_NAME":"SHENZHOU-22","OBJECT_ID":"2025-272A","EPOCH":"2026-03-17T06:22:25.768128","MEAN_MOTION":15.61083168,"ECCENTRICITY":0.00061505,"INCLINATION":41.4671,"RA_OF_ASC_NODE":162.0513,"ARG_OF_PERICENTER":318.9181,"MEAN_ANOMALY":41.1194,"EPHEMERIS_TYPE":0,"CLASSIFICATION_TYPE":"U","NORAD_CAT_ID":66645,"ELEMENT_SET_NO":999,"REV_AT_EPOCH":26752,"BSTAR":0.00024645816,"MEAN_MOTION_DOT":0.00021102,"MEAN_MOTION_DDOT":0}]
